{"type": "FeatureCollection", "features": [ {"type": "Feature", "properties": {"norad_id": 30675, "name": "FENGYUN 1C DEB", "group": "fengyun-1c-debris", "lat": -67.1898684600825, "lon": -135.2104845793741, "alt_km": 801.3001805760314, "timestamp": "2025-12-13T03:42:11.550824+00:00", "meta": {"OBJECT_NAME": "FENGYUN 1C DEB", "OBJECT_ID": "1999-025AQH", "EPOCH": "2025-12-12T04:57:59.832000", "MEAN_MOTION": 14.27397938, "ECCENTRICITY": 0.00540372, "INCLINATION": 98.7535, "RA_OF_ASC_NODE": 65.3319, "ARG_OF_PERICENTER": 170.6339, "MEAN_ANOMALY": 252.1769, "EPHEMERIS_TYPE": 0, "CLASSIFICATION_TYPE": "U", "NORAD_CAT_ID": 30675, "ELEMENT_SET_NO": 999, "REV_AT_EPOCH": 96884, "BSTAR": 0.0026648627, "MEAN_MOTION_DOT": 6.597e-05, "MEAN_MOTION_DDOT": 0}, "tle": {"line1": "1 30675U 99025AQH 25346.20694250  .00006597  00000+0  26649-2 0  9999", "line2": "2 30675  98.7535  65.3319 0054037 170.6339 252.1769 14.27397938968845"}}, "geometry": {"type": "Point", "coordinates": [-135.2104845793741, -67.1898684600825]}}, {"type": "Feature", "properties": {"norad_id": 30676, "name": "FENGYUN 1C DEB", "group": "fengyun-1c-debris", "lat": 51.07399605241395, "lon": 3.3715722346892494, "alt_km": 909.9175227911164, "timestamp": "2025-12-13T03:42:11.550834+00:00", "meta": {"OBJECT_NAME": "FENGYUN 1C DEB", "OBJECT_ID": "1999-025AQJ", "EPOCH": "2025-12-12T06:09:12.900384", "MEAN_MOTION": 13.73909389, "ECCENTRICITY": 0.04722694, "INCLINATION": 98.2667, "RA_OF_ASC_NODE": 172.2213, "ARG_OF_PERICENTER": 49.6374, "MEAN_ANOMALY": 314.5031, "EPHEMERIS_TYPE": 0, "CLASSIFICATION_TYPE": "U", "NORAD_CAT_ID": 30676, "ELEMENT_SET_NO": 999, "REV_AT_EPOCH": 93917, "BSTAR": 0.001130987, "MEAN_MOTION_DOT": 2.353e-05, "MEAN_MOTION_DDOT": 0}, "tle": {"line1": "1 30676U 99025AQJ 25346.25639931  .00002353  00000+0  11310-2 0  9995", "line2": "2 30676  98.2667 172.2213 0472269  49.6374 314.5031 13.73909389939171"}}, "geometry": {"type": "Point", "coordinates": [3.3715722346892494, 51.07399605241395]}}, {"type": "Feature", "properties": {"norad_id": 30677, "name": "FENGYUN 1C DEB", "group": "fengyun-1c-debris", "lat": -81.71650186981874, "lon": 126.58821306495302, "alt_km": 752.8851781151234, "timestamp": "2025-12-13T03:42:11.550844+00:00", "meta": {"OBJECT_NAME": "FENGYUN 1C DEB", "OBJECT_ID": "1999-025AQK", "EPOCH": "2025-12-11T14:27:19.753344", "MEAN_MOTION": 14.38132974, "ECCENTRICITY": 0.00661389, "INCLINATION": 98.2547, "RA_OF_ASC_NODE": 30.7475, "ARG_OF_PERICENTER": 207.503, "MEAN_ANOMALY": 310.7155, "EPHEMERIS_TYPE": 0, "CLASSIFICATION_TYPE": "U", "NORAD_CAT_ID": 30677, "ELEMENT_SET_NO": 999, "REV_AT_EPOCH": 97963, "BSTAR": 0.001819089, "MEAN_MOTION_DOT": 5.62e-05, "MEAN_MOTION_DDOT": 0}, "tle": {"line1": "1 30677U 99025AQK 25345.60231196  .00005620  00000+0  18191-2 0  9999", "line2": "2 30677  98.2547  30.7475 0066138 207.5030 310.7155 14.38132974979635"}}, "geometry": {"type": "Point", "coordinates": [126.58821306495302, -81.71650186981874]}}, {"type": "Feature", "properties": {"norad_id": 30678, "name": "FENGYUN 1C DEB", "group": "fengyun-1c-debris", "lat": 79.48980952802583, "lon": -172.529767063411, "alt_km": 839.8752288915566, "timestamp": "2025-12-13T03:42:11.550854+00:00", "meta": {"OBJECT_NAME": "FENGYUN 1C DEB", "OBJECT_ID": "1999-025AQL", "EPOCH": "2025-12-10T10:04:43.598784", "MEAN_MOTION": 14.24112921, "ECCENTRICITY": 0.00718834, "INCLINATION": 99.0801, "RA_OF_ASC_NODE": 305.1052, "ARG_OF_PERICENTER": 237.6292, "MEAN_ANOMALY": 247.2907, "EPHEMERIS_TYPE": 0, "CLASSIFICATION_TYPE": "U", "NORAD_CAT_ID": 30678, "ELEMENT_SET_NO": 999, "REV_AT_EPOCH": 95842, "BSTAR": 0.0049892923, "MEAN_MOTION_DOT": 0.00011762, "MEAN_MOTION_DDOT": 0}, "tle": {"line1": "1 30678U 99025AQL 25344.41994906  .00011762  00000+0  49893-2 0  9990", "line2": "2 30678  99.0801 305.1052 0071883 237.6292 247.2907 14.24112921958423"}}, "geometry": {"type": "Point", "coordinates": [-172.529767063411, 79.48980952802583]}}, {"type": "Feature", "properties": {"norad_id": 30679, "name": "FENGYUN 1C DEB", "group": "fengyun-1c-debris", "lat": 25.890967125432816, "lon": -136.4971285323921, "alt_km": 931.1794216121498, "timestamp": "2025-12-13T03:42:11.550864+00:00", "meta": {"OBJECT_NAME": "FENGYUN 1C DEB", "OBJECT_ID": "1999-025AQM", "EPOCH": "2025-12-12T02:45:41.508864", "MEAN_MOTION": 13.79713428, "ECCENTRICITY": 0.01716958, "INCLINATION": 99.3816, "RA_OF_ASC_NODE": 37.8703, "ARG_OF_PERICENTER": 80.4594, "MEAN_ANOMALY": 312.1545, "EPHEMERIS_TYPE": 0, "CLASSIFICATION_TYPE": "U", "NORAD_CAT_ID": 30679, "ELEMENT_SET_NO": 999, "REV_AT_EPOCH": 94511, "BSTAR": 0.00085498626, "MEAN_MOTION_DOT": 9.44e-06, "MEAN_MOTION_DDOT": 0}, "tle": {"line1": "1 30679U 99025AQM 25346.11506376  .00000944  00000+0  85499-3 0  9993", "line2": "2 30679  99.3816  37.8703 0171695  80.4594 312.1545 13.79713428945116"}}, "geometry": {"type": "Point", "coordinates": [-136.4971285323921, 25.890967125432816]}}, {"type": "Feature", "properties": {"norad_id": 30680, "name": "FENGYUN 1C DEB", "group": "fengyun-1c-debris", "lat": -20.057190869583664, "lon": 33.31352555632314, "alt_km": 1305.6879692774446, "timestamp": "2025-12-13T03:42:11.550874+00:00", "meta": {"OBJECT_NAME": "FENGYUN 1C DEB", "OBJECT_ID": "1999-025AQN", "EPOCH": "2025-12-12T01:14:56.598144", "MEAN_MOTION": 13.5609852, "ECCENTRICITY": 0.03403021, "INCLINATION": 99.6296, "RA_OF_ASC_NODE": 28.6811, "ARG_OF_PERICENTER": 169.4658, "MEAN_ANOMALY": 191.3848, "EPHEMERIS_TYPE": 0, "CLASSIFICATION_TYPE": "U", "NORAD_CAT_ID": 30680, "ELEMENT_SET_NO": 999, "REV_AT_EPOCH": 92244, "BSTAR": 0.0064621509, "MEAN_MOTION_DOT": 6.54e-05, "MEAN_MOTION_DDOT": 0}, "tle": {"line1": "1 30680U 99025AQN 25346.05204396  .00006540  00000+0  64622-2 0  9997", "line2": "2 30680  99.6296  28.6811 0340302 169.4658 191.3848 13.56098520922441"}}, "geometry": {"type": "Point", "coordinates": [33.31352555632314, -20.057190869583664]}}, {"type": "Feature", "properties": {"norad_id": 30683, "name": "FENGYUN 1C DEB", "group": "fengyun-1c-debris", "lat": -3.799995246714421, "lon": -0.7084015546614196, "alt_km": 963.3883995192027, "timestamp": "2025-12-13T03:42:11.550884+00:00", "meta": {"OBJECT_NAME": "FENGYUN 1C DEB", "OBJECT_ID": "1999-025AQR", "EPOCH": "2025-12-12T00:25:40.568160", "MEAN_MOTION": 14.00382427, "ECCENTRICITY": 0.0138301, "INCLINATION": 99.4293, "RA_OF_ASC_NODE": 357.4874, "ARG_OF_PERICENTER": 226.5464, "MEAN_ANOMALY": 162.2614, "EPHEMERIS_TYPE": 0, "CLASSIFICATION_TYPE": "U", "NORAD_CAT_ID": 30683, "ELEMENT_SET_NO": 999, "REV_AT_EPOCH": 95541, "BSTAR": 0.0018749, "MEAN_MOTION_DOT": 2.97e-05, "MEAN_MOTION_DDOT": 0}, "tle": {"line1": "1 30683U 99025AQR 25346.01783065  .00002970  00000+0  18749-2 0  9993", "line2": "2 30683  99.4293 357.4874 0138301 226.5464 162.2614 14.00382427955418"}}, "geometry": {"type": "Point", "coordinates": [-0.7084015546614196, -3.799995246714421]}}, {"type": "Feature", "properties": {"norad_id": 30684, "name": "FENGYUN 1C DEB", "group": "fengyun-1c-debris", "lat": 60.656136351855054, "lon": -134.0738180847797, "alt_km": 1154.8336928717936, "timestamp": "2025-12-13T03:42:11.550895+00:00", "meta": {"OBJECT_NAME": "FENGYUN 1C DEB", "OBJECT_ID": "1999-025AQS", "EPOCH": "2025-12-11T01:55:02.958240", "MEAN_MOTION": 13.66799517, "ECCENTRICITY": 0.02346905, "INCLINATION": 99.5314, "RA_OF_ASC_NODE": 26.4933, "ARG_OF_PERICENTER": 273.53, "MEAN_ANOMALY": 83.9031, "EPHEMERIS_TYPE": 0, "CLASSIFICATION_TYPE": "U", "NORAD_CAT_ID": 30684, "ELEMENT_SET_NO": 999, "REV_AT_EPOCH": 93606, "BSTAR": 0.0012768295, "MEAN_MOTION_DOT": 1.24e-05, "MEAN_MOTION_DDOT": 0}, "tle": {"line1": "1 30684U 99025AQS 25345.07989535  .00001240  00000+0  12768-2 0  9993", "line2": "2 30684  99.5314  26.4933 0234690 273.5300  83.9031 13.66799517936067"}}, "geometry": {"type": "Point", "coordinates": [-134.0738180847797, 60.656136351855054]}}, {"type": "Feature", "properties": {"norad_id": 30686, "name": "FENGYUN 1C DEB", "group": "fengyun-1c-debris", "lat": -40.69639339792212, "lon": -6.765104681361681, "alt_km": 674.7049051187487, "timestamp": "2025-12-13T03:42:11.550905+00:00", "meta": {"OBJECT_NAME": "FENGYUN 1C DEB", "OBJECT_ID": "1999-025AQU", "EPOCH": "2025-12-12T05:46:14.763360", "MEAN_MOTION": 14.73871702, "ECCENTRICITY": 0.01441457, "INCLINATION": 99.0333, "RA_OF_ASC_NODE": 180.0813, "ARG_OF_PERICENTER": 122.1593, "MEAN_ANOMALY": 291.4202, "EPHEMERIS_TYPE": 0, "CLASSIFICATION_TYPE": "U", "NORAD_CAT_ID": 30686, "ELEMENT_SET_NO": 999, "REV_AT_EPOCH": 99594, "BSTAR": 0.001167602, "MEAN_MOTION_DOT": 8.981e-05, "MEAN_MOTION_DDOT": 0}, "tle": {"line1": "1 30686U 99025AQU 25346.24044865  .00008981  00000+0  11676-2 0  9999", "line2": "2 30686  99.0333 180.0813 0144145 122.1593 291.4202 14.73871702995941"}}, "geometry": {"type": "Point", "coordinates": [-6.765104681361681, -40.69639339792212]}}, {"type": "Feature", "properties": {"norad_id": 30688, "name": "FENGYUN 1C DEB", "group": "fengyun-1c-debris", "lat": 64.62829170883211, "lon": -100.62853983534391, "alt_km": 786.5316473732346, "timestamp": "2025-12-13T03:42:11.550915+00:00", "meta": {"OBJECT_NAME": "FENGYUN 1C DEB", "OBJECT_ID": "1999-025AQW", "EPOCH": "2025-12-12T03:50:48.133248", "MEAN_MOTION": 14.32689796, "ECCENTRICITY": 0.00151561, "INCLINATION": 98.7013, "RA_OF_ASC_NODE": 59.5335, "ARG_OF_PERICENTER": 317.4312, "MEAN_ANOMALY": 72.4423, "EPHEMERIS_TYPE": 0, "CLASSIFICATION_TYPE": "U", "NORAD_CAT_ID": 30688, "ELEMENT_SET_NO": 999, "REV_AT_EPOCH": 97252, "BSTAR": 0.0025399834, "MEAN_MOTION_DOT": 6.879e-05, "MEAN_MOTION_DDOT": 0}, "tle": {"line1": "1 30688U 99025AQW 25346.16027932  .00006879  00000+0  25400-2 0  9992", "line2": "2 30688  98.7013  59.5335 0015156 317.4312  72.4423 14.32689796972526"}}, "geometry": {"type": "Point", "coordinates": [-100.62853983534391, 64.62829170883211]}}]}